{"epoch":1784799577,"count":18318,"objects":[{"id":"47278","name":"ONEWEB-0132","type":"PAYLOAD","l1":"1 47278U 20100W   26203.81803907 -.00000155  00000-0 -46648-3 0  9994","l2":"2 47278  87.8972 343.5876 0001830  99.5946 260.5390 13.12443888269252"},{"id":"47279","name":"ONEWEB-0133","type":"PAYLOAD","l1":"1 47279U 20100X   26203.83483536  .00000419  00000-0  11283-2 0  9996","l2":"2 47279  87.8984 343.5644 0001844 102.0404 258.0931 13.12444797269414"},{"id":"47280","name":"ONEWEB-0134","type":"PAYLOAD","l1":"1 47280U 20100Y   26203.34706182 -.00000339  00000-0 -97663-3 0  9999","l2":"2 47280  87.8984 343.6581 0002096 101.0587 259.0778 13.12443432269323"},{"id":"47281","name":"ONEWEB-0135","type":"PAYLOAD","l1":"1 47281U 20100Z   26203.85192106  .00000223  00000-0  58467-3 0  9990","l2":"2 47281  87.8971 343.5761 0002063 105.8724 254.2633 13.12443188269413"},{"id":"47282","name":"ONEWEB-0136","type":"PAYLOAD","l1":"1 47282U 20100AA  26203.79431739 -.00000346  00000-0 -99689-3 0  9991","l2":"2 47282  87.8979 343.5718 0002171 100.9088 259.2285 13.12442334269334"},{"id":"47283","name":"ONEWEB-0137","type":"PAYLOAD","l1":"1 47283U 20100AB  26203.29454117  .00000418  00000-0  11266-2 0  9994","l2":"2 47283  87.8984 343.6830 0001776  93.6253 266.5079 13.12444548269172"},{"id":"47284","name":"ONEWEB-0138","type":"PAYLOAD","l1":"1 47284U 20100AC  26203.80617947 -.00000407  00000-0 -11658-2 0  9999","l2":"2 47284  87.8982 343.5853 0002063  98.7938 261.3425 13.12443337269321"},{"id":"47285","name":"ONEWEB-0139","type":"PAYLOAD","l1":"1 47285U 20100AD  26203.84699361  .00000425  00000-0  11455-2 0  9997","l2":"2 47285  87.8984 343.5648 0001860  92.5891 267.5451 13.12442091269402"},{"id":"47286","name":"ONEWEB-0140","type":"PAYLOAD","l1":"1 47286U 20100AE  26203.64862052 -.00000353  00000-0 -10177-2 0  9997","l2":"2 47286  87.8983 343.5943 0001823 102.7275 257.4057 13.12443150269349"},{"id":"47287","name":"ONEWEB-0141","type":"PAYLOAD","l1":"1 47287U 20100AF  26203.61798679  .00000396  00000-0  10648-2 0  9996","l2":"2 47287  87.8982 343.6053 0001771  88.3655 271.7676 13.12443397269322"},{"id":"47288","name":"ONEWEB-0142","type":"PAYLOAD","l1":"1 47288U 20100AG  26203.83511663  .00000382  00000-0  10276-2 0  9999","l2":"2 47288  87.8975 343.5812 0002060  86.2054 273.9310 13.12444505269342"},{"id":"47289","name":"ONEWEB-0143","type":"PAYLOAD","l1":"1 47289U 20100AH  26203.69267337  .00000376  00000-0  10086-2 0  9992","l2":"2 47289  87.8975 343.6095 0001821  96.9965 263.1371 13.12442805269305"},{"id":"47290","name":"ONEWEB-0144","type":"PAYLOAD","l1":"1 47290U 20100AJ  26203.81634803 -.00000152  00000-0 -45742-3 0  9996","l2":"2 47290  87.8984 343.5614 0002208  95.0094 265.1287 13.12444096269241"},{"id":"47291","name":"ONEWEB-0145","type":"PAYLOAD","l1":"1 47291U 20100AK  26203.63506778 -.00000137  00000-0 -41653-3 0  9996","l2":"2 47291  87.8973 343.6212 0001919  96.1031 264.0316 13.12442636269414"},{"id":"47292","name":"ONEWEB-0146","type":"PAYLOAD","l1":"1 47292U 20100AL  26203.86039316  .00000103  00000-0  25112-3 0  9994","l2":"2 47292  87.8977 343.5701 0001564 102.9782 257.1521 13.12443073269356"},{"id":"47293","name":"ONEWEB-0147","type":"PAYLOAD","l1":"1 47293U 20100AM  26203.82650996  .00000221  00000-0  57758-3 0  9996","l2":"2 47293  87.8981 343.5599 0001928 101.4311 258.7035 13.12444617269243"},{"id":"47302","name":"YAOGAN-33","type":"PAYLOAD","l1":"1 47302U 20103A   26203.96477869  .00000316  00000-0  77247-4 0  9992","l2":"2 47302  98.0367  84.3976 0003389  36.6816 323.4615 14.58734389296521"},{"id":"47303","name":"WEINA 2","type":"PAYLOAD","l1":"1 47303U 20103B   26203.94976751  .00000971  00000-0  18951-3 0  9998","l2":"2 47303  98.0487  92.3859 0003772  83.4898 276.6734 14.65093543296967"},{"id":"47306","name":"TURKSAT 5A","type":"PAYLOAD","l1":"1 47306U 21001A   26203.89051778  .00000158  00000-0  00000-0 0  9996","l2":"2 47306   0.0181  77.6342 0000181   2.0103 212.4832  1.00272545 20322"},{"id":"47321","name":"TIANTONG-1 3","type":"PAYLOAD","l1":"1 47321U 21003A   26203.77302525 -.00000148  00000-0  00000-0 0  9991","l2":"2 47321   1.7303 341.5476 0003347 143.1913 175.5529  1.00270111 20315"},{"id":"47346","name":"GMS-T","type":"PAYLOAD","l1":"1 47346U 21004A   26203.88051659  .00000014  00000-0  16144-4 0  9991","l2":"2 47346  90.1268 242.2695 0001433 356.8992   3.2131 13.16657204264293"},{"id":"47351","name":"STARLINK-2017","type":"PAYLOAD","l1":"1 47351U 21005C   26203.86804322  .00004377  00000-0  15264-3 0  9996","l2":"2 47351  53.1589 104.6712 0001253  94.5804 265.5341 15.31722805304439"},{"id":"47352","name":"STARLINK-2034","type":"PAYLOAD","l1":"1 47352U 21005D   26203.92392141  .00004868  00000-0  16841-3 0  9992","l2":"2 47352  53.1581 143.4777 0001320  97.3526 262.7625 15.31723761303896"},{"id":"47353","name":"STARLINK-2045","type":"PAYLOAD","l1":"1 47353U 21005E   26203.38890134  .00000530  00000-0  28844-4 0  9997","l2":"2 47353  53.1602  93.8966 0001358  95.0362 265.0795 15.31706959304540"},{"id":"47354","name":"STARLINK-2046","type":"PAYLOAD","l1":"1 47354U 21005F   26203.73027932  .00003305  00000-0  11821-3 0  9994","l2":"2 47354  53.1606 115.6324 0001581 123.0985 237.0168 15.31704491304268"},{"id":"47355","name":"STARLINK-2047","type":"PAYLOAD","l1":"1 47355U 21005G   26203.04207793  .00000228  00000-0  19113-4 0  9998","l2":"2 47355  53.1597 105.8487 0001239  80.2198 279.8943 15.31700466304330"},{"id":"47356","name":"STARLINK-2049","type":"PAYLOAD","l1":"1 47356U 21005H   26203.81259982  .00003638  00000-0  12888-3 0  9990","l2":"2 47356  53.1596 128.2412 0001292  94.7979 265.3170 15.31719120304084"},{"id":"47357","name":"STARLINK-2050","type":"PAYLOAD","l1":"1 47357U 21005J   26203.60503455  .00000850  00000-0  39148-4 0  9997","l2":"2 47357  53.1607 155.1195 0001306  88.4572 271.6579 15.31709463303698"},{"id":"47358","name":"STARLINK-2055","type":"PAYLOAD","l1":"1 47358U 21005K   26203.06778621  .00031403  00000-0  97199-3 0  9994","l2":"2 47358  53.1584 131.9988 0003021  72.9523 287.1810 15.33223360303964"},{"id":"47361","name":"STARLINK-2071","type":"PAYLOAD","l1":"1 47361U 21005N   26203.80866181 -.00007366  00000-0 -22575-3 0  9998","l2":"2 47361  53.1583 128.7243 0001169  54.0999 306.0111 15.31711955304072"}]}