OBJECT_NAME,OBJECT_ID,EPOCH,MEAN_MOTION,ECCENTRICITY,INCLINATION,RA_OF_ASC_NODE,ARG_OF_PERICENTER,MEAN_ANOMALY,EPHEMERIS_TYPE,CLASSIFICATION_TYPE,NORAD_CAT_ID,ELEMENT_SET_NO,REV_AT_EPOCH,BSTAR,MEAN_MOTION_DOT,MEAN_MOTION_DDOT
ONEWEB-0132,2020-100W,2026-07-22T19:37:58.575648,13.12443888,.00018298,87.8972,343.5876,99.5946,260.5390,0,U,47278,999,26925,-.46648078E-3,-.155E-5,0
ONEWEB-0133,2020-100X,2026-07-22T20:02:09.775104,13.12444797,.00018443,87.8984,343.5644,102.0404,258.0931,0,U,47279,999,26941,.11282642E-2,.419E-5,0
ONEWEB-0134,2020-100Y,2026-07-22T08:19:46.141248,13.12443432,.00020961,87.8984,343.6581,101.0587,259.0778,0,U,47280,999,26932,-.97663165E-3,-.339E-5,0
ONEWEB-0135,2020-100Z,2026-07-22T20:26:45.979584,13.12443188,.00020635,87.8971,343.5761,105.8724,254.2633,0,U,47281,999,26941,.58466973E-3,.223E-5,0
ONEWEB-0136,2020-100AA,2026-07-22T19:03:49.022496,13.12442334,.00021713,87.8979,343.5718,100.9088,259.2285,0,U,47282,999,26933,-.99688501E-3,-.346E-5,0
ONEWEB-0137,2020-100AB,2026-07-22T07:04:08.357088,13.12444548,.00017755,87.8984,343.6830,93.6253,266.5079,0,U,47283,999,26917,.11265674E-2,.418E-5,0
ONEWEB-0138,2020-100AC,2026-07-22T19:20:53.906208,13.12443337,.00020631,87.8982,343.5853,98.7938,261.3425,0,U,47284,999,26932,-.11658471E-2,-.407E-5,0
ONEWEB-0139,2020-100AD,2026-07-22T20:19:40.247904,13.12442091,.00018596,87.8984,343.5648,92.5891,267.5451,0,U,47285,999,26940,.11454602E-2,.425E-5,0
ONEWEB-0140,2020-100AE,2026-07-22T15:34:00.812928,13.12443150,.00018233,87.8983,343.5943,102.7275,257.4057,0,U,47286,999,26934,-.10176618E-2,-.353E-5,0
ONEWEB-0141,2020-100AF,2026-07-22T14:49:54.058656,13.12443397,.00017712,87.8982,343.6053,88.3655,271.7676,0,U,47287,999,26932,.10648312E-2,.396E-5,0
ONEWEB-0142,2020-100AG,2026-07-22T20:02:34.076832,13.12444505,.00020599,87.8975,343.5812,86.2054,273.9310,0,U,47288,999,26934,.10276205E-2,.382E-5,0
ONEWEB-0143,2020-100AH,2026-07-22T16:37:26.979168,13.12442805,.00018209,87.8975,343.6095,96.9965,263.1371,0,U,47289,999,26930,.10086462E-2,.376E-5,0
ONEWEB-0144,2020-100AJ,2026-07-22T19:35:32.469792,13.12444096,.00022079,87.8984,343.5614,95.0094,265.1287,0,U,47290,999,26924,-.45742205E-3,-.152E-5,0
ONEWEB-0145,2020-100AK,2026-07-22T15:14:29.856192,13.12442636,.00019188,87.8973,343.6212,96.1031,264.0316,0,U,47291,999,26941,-.41652717E-3,-.137E-5,0
ONEWEB-0146,2020-100AL,2026-07-22T20:38:57.969024,13.12443073,.00015645,87.8977,343.5701,102.9782,257.1521,0,U,47292,999,26935,.251123E-3,.103E-5,0
ONEWEB-0147,2020-100AM,2026-07-22T19:50:10.460544,13.12444617,.00019278,87.8981,343.5599,101.4311,258.7035,0,U,47293,999,26924,.57757718E-3,.221E-5,0
YAOGAN-33 01,2020-103A,2026-07-22T23:09:16.878816,14.58734389,.0003389,98.0367,84.3976,36.6816,323.4615,0,U,47302,999,29652,.77246591E-4,.316E-5,0
WEINA 2,2020-103B,2026-07-22T22:47:39.912864,14.65093543,.00037718,98.0487,92.3859,83.4898,276.6734,0,U,47303,999,29696,.1895107E-3,.971E-5,0
TURKSAT 5A,2021-001A,2026-07-22T21:22:20.736192,1.00272545,.00001807,0.0181,77.6342,2.0103,212.4832,0,U,47306,999,2032,0,.158E-5,0
TIANTONG-1 3,2021-003A,2026-07-22T18:33:09.381600,1.00270111,.00033469,1.7303,341.5476,143.1913,175.5529,0,U,47321,999,2031,0,-.148E-5,0
GMS-T,2021-004A,2026-07-22T21:07:56.633376,13.16657204,.00014327,90.1268,242.2695,356.8992,3.2131,0,U,47346,999,26429,.16144273E-4,.14E-6,0
STARLINK-2017,2021-005C,2026-07-22T20:49:58.934208,15.31722805,.0001253,53.1589,104.6712,94.5804,265.5341,0,U,47351,999,30443,.15263645E-3,.4377E-4,0
STARLINK-2034,2021-005D,2026-07-22T22:10:26.809824,15.31723761,.00013202,53.1581,143.4777,97.3526,262.7625,0,U,47352,999,30389,.16840722E-3,.4868E-4,0
STARLINK-2045,2021-005E,2026-07-22T09:20:01.075776,15.31706959,.00013582,53.1602,93.8966,95.0362,265.0795,0,U,47353,999,30454,.28844405E-4,.53E-5,0
STARLINK-2046,2021-005F,2026-07-22T17:31:36.133248,15.31704491,.00015807,53.1606,115.6324,123.0985,237.0168,0,U,47354,999,30426,.11821083E-3,.3305E-4,0
STARLINK-2047,2021-005G,2026-07-22T01:00:35.533152,15.31700466,.00012387,53.1597,105.8487,80.2198,279.8943,0,U,47355,999,30433,.19113379E-4,.228E-5,0
STARLINK-2049,2021-005H,2026-07-22T19:30:08.624448,15.31719120,.00012922,53.1596,128.2412,94.7979,265.3170,0,U,47356,999,30408,.12887573E-3,.3638E-4,0
STARLINK-2050,2021-005J,2026-07-22T14:31:14.985120,15.31709463,.0001306,53.1607,155.1195,88.4572,271.6579,0,U,47357,999,30369,.39147625E-4,.85E-5,0
STARLINK-2055,2021-005K,2026-07-22T01:37:36.728544,15.33223360,.00030206,53.1584,131.9988,72.9523,287.1810,0,U,47358,999,30396,.97199499E-3,.31403E-3,0
STARLINK-2071,2021-005N,2026-07-22T19:24:28.380384,15.31711955,.00011694,53.1583,128.7243,54.0999,306.0111,0,U,47361,999,30407,-.22574623E-3,-.7366E-4,0
